[{"OBJECT_NAME":"OSCAR 31","OBJECT_ID":"1988-074B","EPOCH":"2026-03-04T11:06:27.947808","MEAN_MOTION":13.4259692,"ECCENTRICITY":0.00948105,"INCLINATION":90.0427,"RA_OF_ASC_NODE":20.8832,"ARG_OF_PERICENTER":8.6304,"MEAN_ANOMALY":108.8172,"EPHEMERIS_TYPE":0,"CLASSIFICATION_TYPE":"U","NORAD_CAT_ID":19420,"ELEMENT_SET_NO":999,"REV_AT_EPOCH":83747,"BSTAR":0.00014891765,"MEAN_MOTION_DOT":9.5e-7,"MEAN_MOTION_DDOT":0}]
